{"spkid": "54275938", "covariance": {"labels": ["e", "q", "tp", "node", "peri", "i"], "data": [["2.692572197969138E-15", "-2.5105433502965E-15", "-1.24235549745503E-13", "1.343858233589798E-13", "-2.235869975009512E-13", "4.806599556175284E-14"], ["-2.5105433502965E-15", "2.350352589295935E-15", "1.078775352447486E-13", "-1.263614029235863E-13", "2.114701072676792E-13", "-4.416103287785587E-14"], ["-1.24235549745503E-13", "1.078775352447486E-13", "1.262849553720312E-11", "-3.696931956192901E-12", "6.301229326925574E-12", "-3.400033336743233E-12"], ["1.343858233589798E-13", "-1.263614029235863E-13", "-3.696931956192901E-12", "5.984214721116631E-11", "-6.273028497915904E-11", "-2.51680662586138E-11"], ["-2.235869975009512E-13", "2.114701072676792E-13", "6.301229326925574E-12", "-6.273028497915904E-11", "6.913158744023907E-11", "2.285127994289026E-11"], ["4.806599556175284E-14", "-4.416103287785587E-14", "-3.400033336743233E-12", "-2.51680662586138E-11", "2.285127994289026E-11", "1.712999781624975E-11"]], "elements": [{"label": "e", "sigma": 5.18900009440079e-08, "name": "e", "value": ".3817344896991867", "title": "eccentricity", "units": null}, {"sigma": 4.84804351186737e-08, "name": "q", "units": "au", "title": "perihelion distance", "value": ".6580650048049503", "label": "q"}, {"label": "tp", "units": "TDB", "value": "2459220.425147773329", "title": "time of perihelion passage", "name": "tp", "sigma": 3.55365945712348e-06}, {"units": "deg", "value": "42.37345473577928", "title": "longitude of the ascending node", "sigma": 7.73577062813824e-06, "name": "om", "label": "node"}, {"label": "peri", "sigma": 8.31454072334961e-06, "name": "w", "units": "deg", "value": "61.61816177385866", "title": "argument of perihelion"}, {"units": "deg", "title": "inclination", "value": "6.393451596688327", "name": "i", "sigma": 4.13884015350312e-06, "label": "i"}], "epoch": "2459286.5"}, "elements": [{"label": "e", "title": "eccentricity", "value": ".3814495211899279", "units": null, "sigma": "5.1646E-8", "name": "e"}, {"units": "au", "value": "1.064230997908661", "title": "semi-major axis", "name": "a", "sigma": "1.15E-8", "label": "a"}, {"label": "q", "sigma": "4.8642E-8", "name": "q", "value": ".658280593320923", "title": "perihelion distance", "units": "au"}, {"label": "i", "sigma": "4.1289E-6", "name": "i", "units": "deg", "title": "inclination; angle with respect to x-y ecliptic plane", "value": "6.424940596227794"}, {"sigma": "7.6333E-6", "name": "om", "units": "deg", "title": "longitude of the ascending node", "value": "42.25612572782493", "label": "node"}, {"units": "deg", "title": "argument of perihelion", "value": "61.76734286501954", "sigma": "8.2196E-6", "name": "w", "label": "peri"}, {"label": "M", "name": "ma", "sigma": "2.6393E-5", "units": "deg", "title": "mean anomaly", "value": "337.2801096854274"}, {"label": "tp", "name": "tp", "sigma": "2.9809E-5", "units": "TDB", "title": "time of perihelion passage", "value": "2461225.807894375417"}, {"label": "period", "units": "d", "title": "sidereal orbital period", "value": "401.0073045689967", "name": "per", "sigma": "6.4999E-6"}, {"label": "n", "sigma": "1.4551E-8", "name": "n", "units": "deg/d", "title": "mean motion", "value": ".8977392578594761"}, {"label": "Q", "value": "1.470181402496399", "title": "aphelion distance", "units": "au", "sigma": "1.5887E-8", "name": "ad"}], "epoch": "2461200.5"}